0 DFS 2
1 20706U 90063B   13281.83282359 -.00000071  00000-0  10000-3 0  1038
2 20706 011.1585 044.8553 0004511 108.1036 251.9490 00.99543453 76787
0 DFS 2
1 20706U 90063B   13282.83739545  .00000000  00000-0  10000-3 0  1056
2 20706 011.1617 044.8359 0004349 119.7066 240.3471 00.99538836 76798
0 DFS 2
1 20706U 90063B   13283.84192194 -.00000034  00000-0  10000-3 0  1048
2 20706 011.1620 044.8315 0004494 104.8602 255.1957 00.99543054 76809
0 DFS 2
1 20706U 90063B   13286.85555807  .00000017  00000-0  10000-3 0  1057
2 20706 011.1674 044.7954 0004297 102.2235 257.8282 00.99542835 76830
0 DFS 2
1 20706U 90063B   13288.86461441  .00000047  00000-0  10000-3 0  1064
2 20706 011.1708 044.7729 0004390 101.0929 258.9417 00.99542930 76859
0 DFS 2
1 20706U 90063B   13292.88271990  .00000090  00000-0  10000-3 0  1078
2 20706 011.1779 044.7259 0004378 103.8459 256.1586 00.99543701 76897
0 DFS 2
1 20706U 90063B   13293.88726442  .00000097  00000-0  10000-3 0  1084
2 20706 011.1797 044.7140 0004209 112.3049 247.6933 00.99543969 76908
